0 BREEZE-M R/B
1 34942U 09027B   13281.81144664 -.00000089  00000-0  00000+0 0  5183
2 34942 007.0118 152.7366 3369235 184.0440 358.0833 01.57278249 25241
0 BREEZE-M R/B
1 34942U 09027B   13285.29724585 -.00000106  00000-0  00000+0 0  5196
2 34942 007.0155 152.5338 3369131 184.4276 171.7180 01.57278134 25300
0 BREEZE-M R/B
1 34942U 09027B   13290.14849737 -.00000100  00000-0  00000+0 0  5209
2 34942 007.0173 152.2327 3368829 184.9721 038.4603 01.57278750 25378
0 BREEZE-M R/B
1 34942U 09027B   13293.30572493 -.00000105  00000-0  00000+0 0  5218
2 34942 007.0193 152.0415 3368602 185.3235 026.0700 01.57278593 25422
